ORBCOMM FM24            
1 25478U 98053D   25205.67990401  .00000918  00000+0  34610-3 0  9995
2 25478  45.0081  91.3175 0003025  40.5367 319.5706 14.38164836402840
ORBCOMM FM25            
1 25479U 98053E   25205.65197400  .00000892  00000+0  33780-3 0  9990
2 25479  45.0073  89.7256 0005064  60.2856 299.8495 14.38136870403135
ORBCOMM FM26            
1 25480U 98053F   25206.10515553  .00000734  00000+0  29170-3 0  9999
2 25480  45.0071  84.3087 0006464  83.6516 276.5068 14.37188812403203
ORBCOMM FM27            
1 25481U 98053G   25205.70833729  .00000922  00000+0  34758-3 0  9990
2 25481  45.0057  89.6479 0001611  31.9941 328.1005 14.38168344403077
ORBCOMM FM28            
1 25482U 98053H   25205.88006304  .00000743  00000+0  28792-3 0  9993
2 25482  45.0068  26.2802 0005226 128.3415 231.7904 14.38349133403782
ORBCOMM FM30            
1 25980U 99065A   25206.16028411  .00000583  00000+0  24054-3 0  9994
2 25980  45.0312 269.9694 0008228 211.0740 148.9622 14.37355680340440
ORBCOMM FM31            
1 25981U 99065B   25205.57910979  .00000505  00000+0  21489-3 0  9991
2 25981  45.0222 266.2005 0006055 231.4764 128.5541 14.37291806340358
ORBCOMM FM32            
1 25982U 99065C   25205.65048376  .00000620  00000+0  25798-3 0  9999
2 25982  45.0157 282.6934 0008276 222.5371 137.4836 14.36338087339986
